[
    {
        "Altitude(m)": 612502.2522214436,
        "Argument of Periapsis(deg)": 0.0,
        "Eccentricity": 0.0,
        "Inclination(deg)": 60.0,
        "Latitude(deg)": -28.13615955724483,
        "Longitude(deg)": -77.85174709027994,
        "Mean Anomaly(deg)": -32.72730000000001,
        "RAAN(deg)": 40.0,
        "Satellite Name": "Test1 196",
        "Satellite Number": 196,
        "Semi-Major Axis(m)": 6980739.136638005,
        "Time(s)": 0
    },
    {
        "Altitude(m)": 612308.6993968982,
        "Argument of Periapsis(deg)": 0.00010418945913296404,
        "Eccentricity": 0.0,
        "Inclination(deg)": 60.0,
        "Latitude(deg)": -27.623214834482717,
        "Longitude(deg)": -77.4982724205392,
        "Mean Anomaly(deg)": -32.10719385453817,
        "RAAN(deg)": 39.99957995086026,
        "Satellite Name": "Test1 196",
        "Satellite Number": 196,
        "Semi-Major Axis(m)": 6980739.136638005,
        "Time(s)": 10
    }
]